CCSDS_OMM_VERS = 2.0
CREATION_DATE  = 
ORIGINATOR     = 

OBJECT_NAME    = STARLINK-36703
OBJECT_ID      = 2026-022C
CENTER_NAME    = EARTH
REF_FRAME      = TEME
TIME_SYSTEM    = UTC
MEAN_ELEMENT_THEORY = SGP/SGP4

EPOCH          = 2026-02-14T12:00:01.999296
MEAN_MOTION    = 15.80111445
ECCENTRICITY   = .00017
INCLINATION    = 97.2821
RA_OF_ASC_NODE = 78.3206
ARG_OF_PERICENTER = 80.2949
MEAN_ANOMALY   = 60.6261

EPHEMERIS_TYPE = 0
CLASSIFICATION_TYPE = U
NORAD_CAT_ID   = 67650
ELEMENT_SET_NO = 999
REV_AT_EPOCH   = 316
BSTAR          = -.1154E-1
MEAN_MOTION_DOT = -.1874318E-1
MEAN_MOTION_DDOT = 0

CCSDS_OMM_VERS = 2.0
CREATION_DATE  = 
ORIGINATOR     = 

OBJECT_NAME    = STARLINK-36696
OBJECT_ID      = 2026-022D
CENTER_NAME    = EARTH
REF_FRAME      = TEME
TIME_SYSTEM    = UTC
MEAN_ELEMENT_THEORY = SGP/SGP4

EPOCH          = 2026-02-14T12:00:01.999296
MEAN_MOTION    = 15.80966710
ECCENTRICITY   = .0001811
INCLINATION    = 97.2817
RA_OF_ASC_NODE = 78.3228
ARG_OF_PERICENTER = 72.5458
MEAN_ANOMALY   = 74.4303

EPHEMERIS_TYPE = 0
CLASSIFICATION_TYPE = U
NORAD_CAT_ID   = 67651
ELEMENT_SET_NO = 999
REV_AT_EPOCH   = 316
BSTAR          = -.11018E-1
MEAN_MOTION_DOT = -.1863314E-1
MEAN_MOTION_DDOT = 0

CCSDS_OMM_VERS = 2.0
CREATION_DATE  = 
ORIGINATOR     = 

OBJECT_NAME    = STARLINK-36699
OBJECT_ID      = 2026-022E
CENTER_NAME    = EARTH
REF_FRAME      = TEME
TIME_SYSTEM    = UTC
MEAN_ELEMENT_THEORY = SGP/SGP4

EPOCH          = 2026-02-14T12:00:01.999296
MEAN_MOTION    = 15.80758116
ECCENTRICITY   = .0001795
INCLINATION    = 97.2817
RA_OF_ASC_NODE = 78.3252
ARG_OF_PERICENTER = 100.1786
MEAN_ANOMALY   = 51.8477

EPHEMERIS_TYPE = 0
CLASSIFICATION_TYPE = U
NORAD_CAT_ID   = 67652
ELEMENT_SET_NO = 999
REV_AT_EPOCH   = 316
BSTAR          = -.11182E-1
MEAN_MOTION_DOT = -.1871713E-1
MEAN_MOTION_DDOT = 0

CCSDS_OMM_VERS = 2.0
CREATION_DATE  = 
ORIGINATOR     = 

OBJECT_NAME    = STARLINK-36694
OBJECT_ID      = 2026-022F
CENTER_NAME    = EARTH
REF_FRAME      = TEME
TIME_SYSTEM    = UTC
MEAN_ELEMENT_THEORY = SGP/SGP4

EPOCH          = 2026-02-14T12:00:01.999296
MEAN_MOTION    = 15.81098490
ECCENTRICITY   = .0001829
INCLINATION    = 97.2821
RA_OF_ASC_NODE = 78.3283
ARG_OF_PERICENTER = 110.3392
MEAN_ANOMALY   = 48.2061

EPHEMERIS_TYPE = 0
CLASSIFICATION_TYPE = U
NORAD_CAT_ID   = 67653
ELEMENT_SET_NO = 999
REV_AT_EPOCH   = 316
BSTAR          = -.48596E-2
MEAN_MOTION_DOT = -.855951E-2
MEAN_MOTION_DDOT = 0

CCSDS_OMM_VERS = 2.0
CREATION_DATE  = 
ORIGINATOR     = 

OBJECT_NAME    = STARLINK-36620
OBJECT_ID      = 2026-022G
CENTER_NAME    = EARTH
REF_FRAME      = TEME
TIME_SYSTEM    = UTC
MEAN_ELEMENT_THEORY = SGP/SGP4

EPOCH          = 2026-02-14T12:00:01.999296
MEAN_MOTION    = 15.81081883
ECCENTRICITY   = .0002118
INCLINATION    = 97.2814
RA_OF_ASC_NODE = 78.3300
ARG_OF_PERICENTER = 84.2596
MEAN_ANOMALY   = 80.0514

EPHEMERIS_TYPE = 0
CLASSIFICATION_TYPE = U
NORAD_CAT_ID   = 67654
ELEMENT_SET_NO = 999
REV_AT_EPOCH   = 316
BSTAR          = -.10746E-1
MEAN_MOTION_DOT = -.1831764E-1
MEAN_MOTION_DDOT = 0

CCSDS_OMM_VERS = 2.0
CREATION_DATE  = 
ORIGINATOR     = 

OBJECT_NAME    = STARLINK-36720
OBJECT_ID      = 2026-022H
CENTER_NAME    = EARTH
REF_FRAME      = TEME
TIME_SYSTEM    = UTC
MEAN_ELEMENT_THEORY = SGP/SGP4

EPOCH          = 2026-02-14T12:00:01.999296
MEAN_MOTION    = 15.81135191
ECCENTRICITY   = .0001454
INCLINATION    = 97.2821
RA_OF_ASC_NODE = 78.3333
ARG_OF_PERICENTER = 105.0609
MEAN_ANOMALY   = 65.9972

EPHEMERIS_TYPE = 0
CLASSIFICATION_TYPE = U
NORAD_CAT_ID   = 67655
ELEMENT_SET_NO = 999
REV_AT_EPOCH   = 316
BSTAR          = -.58473E-2
MEAN_MOTION_DOT = -.1012603E-1
MEAN_MOTION_DDOT = 0

CCSDS_OMM_VERS = 2.0
CREATION_DATE  = 
ORIGINATOR     = 

OBJECT_NAME    = STARLINK-36688
OBJECT_ID      = 2026-022J
CENTER_NAME    = EARTH
REF_FRAME      = TEME
TIME_SYSTEM    = UTC
MEAN_ELEMENT_THEORY = SGP/SGP4

EPOCH          = 2026-02-14T12:00:01.999296
MEAN_MOTION    = 15.81200080
ECCENTRICITY   = .0002399
INCLINATION    = 97.2818
RA_OF_ASC_NODE = 78.3347
ARG_OF_PERICENTER = 99.5820
MEAN_ANOMALY   = 76.4033

EPHEMERIS_TYPE = 0
CLASSIFICATION_TYPE = U
NORAD_CAT_ID   = 67656
ELEMENT_SET_NO = 999
REV_AT_EPOCH   = 316
BSTAR          = -.77641E-2
MEAN_MOTION_DOT = -.1330078E-1
MEAN_MOTION_DDOT = 0

CCSDS_OMM_VERS = 2.0
CREATION_DATE  = 
ORIGINATOR     = 

OBJECT_NAME    = STARLINK-36706
OBJECT_ID      = 2026-022K
CENTER_NAME    = EARTH
REF_FRAME      = TEME
TIME_SYSTEM    = UTC
MEAN_ELEMENT_THEORY = SGP/SGP4

EPOCH          = 2026-02-14T12:00:01.999296
MEAN_MOTION    = 15.81031111
ECCENTRICITY   = .0000685
INCLINATION    = 97.2807
RA_OF_ASC_NODE = 78.3365
ARG_OF_PERICENTER = 106.9768
MEAN_ANOMALY   = 74.7141

EPHEMERIS_TYPE = 0
CLASSIFICATION_TYPE = U
NORAD_CAT_ID   = 67657
ELEMENT_SET_NO = 999
REV_AT_EPOCH   = 313
BSTAR          = -.30524E-2
MEAN_MOTION_DOT = -.554541E-2
MEAN_MOTION_DDOT = 0

CCSDS_OMM_VERS = 2.0
CREATION_DATE  = 
ORIGINATOR     = 

OBJECT_NAME    = STARLINK-36701
OBJECT_ID      = 2026-022L
CENTER_NAME    = EARTH
REF_FRAME      = TEME
TIME_SYSTEM    = UTC
MEAN_ELEMENT_THEORY = SGP/SGP4

EPOCH          = 2026-02-14T12:00:01.999296
MEAN_MOTION    = 15.81049518
ECCENTRICITY   = .0001576
INCLINATION    = 97.2808
RA_OF_ASC_NODE = 78.3400
ARG_OF_PERICENTER = 96.5069
MEAN_ANOMALY   = 91.6323

EPHEMERIS_TYPE = 0
CLASSIFICATION_TYPE = U
NORAD_CAT_ID   = 67658
ELEMENT_SET_NO = 999
REV_AT_EPOCH   = 316
BSTAR          = -.3929E-2
MEAN_MOTION_DOT = -.702666E-2
MEAN_MOTION_DDOT = 0

CCSDS_OMM_VERS = 2.0
CREATION_DATE  = 
ORIGINATOR     = 

OBJECT_NAME    = STARLINK-36642
OBJECT_ID      = 2026-022M
CENTER_NAME    = EARTH
REF_FRAME      = TEME
TIME_SYSTEM    = UTC
MEAN_ELEMENT_THEORY = SGP/SGP4

EPOCH          = 2026-02-14T12:00:01.999296
MEAN_MOTION    = 15.80939752
ECCENTRICITY   = .0000808
INCLINATION    = 97.2809
RA_OF_ASC_NODE = 78.3421
ARG_OF_PERICENTER = 121.3438
MEAN_ANOMALY   = 71.4516

EPHEMERIS_TYPE = 0
CLASSIFICATION_TYPE = U
NORAD_CAT_ID   = 67659
ELEMENT_SET_NO = 999
REV_AT_EPOCH   = 316
BSTAR          = -.17625E-2
MEAN_MOTION_DOT = -.327238E-2
MEAN_MOTION_DDOT = 0

CCSDS_OMM_VERS = 2.0
CREATION_DATE  = 
ORIGINATOR     = 

OBJECT_NAME    = STARLINK-36673
OBJECT_ID      = 2026-022N
CENTER_NAME    = EARTH
REF_FRAME      = TEME
TIME_SYSTEM    = UTC
MEAN_ELEMENT_THEORY = SGP/SGP4

EPOCH          = 2026-02-14T12:00:01.999296
MEAN_MOTION    = 15.80807827
ECCENTRICITY   = .0000926
INCLINATION    = 97.2804
RA_OF_ASC_NODE = 78.3439
ARG_OF_PERICENTER = 122.5949
MEAN_ANOMALY   = 76.6589

EPHEMERIS_TYPE = 0
CLASSIFICATION_TYPE = U
NORAD_CAT_ID   = 67660
ELEMENT_SET_NO = 999
REV_AT_EPOCH   = 316
BSTAR          = .19846E-4
MEAN_MOTION_DOT = .366E-4
MEAN_MOTION_DDOT = 0

CCSDS_OMM_VERS = 2.0
CREATION_DATE  = 
ORIGINATOR     = 

OBJECT_NAME    = STARLINK-36674
OBJECT_ID      = 2026-022P
CENTER_NAME    = EARTH
REF_FRAME      = TEME
TIME_SYSTEM    = UTC
MEAN_ELEMENT_THEORY = SGP/SGP4

EPOCH          = 2026-02-14T12:00:01.999296
MEAN_MOTION    = 15.80777016
ECCENTRICITY   = .0001306
INCLINATION    = 97.2807
RA_OF_ASC_NODE = 78.3463
ARG_OF_PERICENTER = 103.5254
MEAN_ANOMALY   = 100.4707

EPHEMERIS_TYPE = 0
CLASSIFICATION_TYPE = U
NORAD_CAT_ID   = 67661
ELEMENT_SET_NO = 999
REV_AT_EPOCH   = 316
BSTAR          = .49849E-3
MEAN_MOTION_DOT = .9623E-3
MEAN_MOTION_DDOT = 0

CCSDS_OMM_VERS = 2.0
CREATION_DATE  = 
ORIGINATOR     = 

OBJECT_NAME    = STARLINK-36700
OBJECT_ID      = 2026-022Q
CENTER_NAME    = EARTH
REF_FRAME      = TEME
TIME_SYSTEM    = UTC
MEAN_ELEMENT_THEORY = SGP/SGP4

EPOCH          = 2026-02-14T12:00:01.999296
MEAN_MOTION    = 15.80762789
ECCENTRICITY   = .0001214
INCLINATION    = 97.2804
RA_OF_ASC_NODE = 78.3510
ARG_OF_PERICENTER = 98.9411
MEAN_ANOMALY   = 117.3740

EPHEMERIS_TYPE = 0
CLASSIFICATION_TYPE = U
NORAD_CAT_ID   = 67662
ELEMENT_SET_NO = 999
REV_AT_EPOCH   = 316
BSTAR          = .4833E-3
MEAN_MOTION_DOT = .932E-3
MEAN_MOTION_DDOT = 0

CCSDS_OMM_VERS = 2.0
CREATION_DATE  = 
ORIGINATOR     = 

OBJECT_NAME    = STARLINK-36675
OBJECT_ID      = 2026-022R
CENTER_NAME    = EARTH
REF_FRAME      = TEME
TIME_SYSTEM    = UTC
MEAN_ELEMENT_THEORY = SGP/SGP4

EPOCH          = 2026-02-14T12:00:01.999296
MEAN_MOTION    = 15.80680327
ECCENTRICITY   = .0001501
INCLINATION    = 97.2804
RA_OF_ASC_NODE = 78.3484
ARG_OF_PERICENTER = 70.4348
MEAN_ANOMALY   = 139.7607

EPHEMERIS_TYPE = 0
CLASSIFICATION_TYPE = U
NORAD_CAT_ID   = 67663
ELEMENT_SET_NO = 999
REV_AT_EPOCH   = 316
BSTAR          = .12909E-2
MEAN_MOTION_DOT = .252851E-2
MEAN_MOTION_DDOT = 0

CCSDS_OMM_VERS = 2.0
CREATION_DATE  = 
ORIGINATOR     = 

OBJECT_NAME    = STARLINK-36404
OBJECT_ID      = 2026-022S
CENTER_NAME    = EARTH
REF_FRAME      = TEME
TIME_SYSTEM    = UTC
MEAN_ELEMENT_THEORY = SGP/SGP4

EPOCH          = 2026-02-14T12:00:01.999296
MEAN_MOTION    = 15.80826552
ECCENTRICITY   = .0001027
INCLINATION    = 97.2798
RA_OF_ASC_NODE = 78.3529
ARG_OF_PERICENTER = 86.1090
MEAN_ANOMALY   = 136.4439

EPHEMERIS_TYPE = 0
CLASSIFICATION_TYPE = U
NORAD_CAT_ID   = 67664
ELEMENT_SET_NO = 999
REV_AT_EPOCH   = 313
BSTAR          = -.50368E-4
MEAN_MOTION_DOT = -.9783E-4
MEAN_MOTION_DDOT = 0

